STARLINK-32304          
1 60738U 24152U   26158.86204530 -.00001058  00000+0 -23621-4 0  9991
2 60738  53.1604 209.7987 0001219  99.3579 260.7560 15.30185847100652
STARLINK-32235          
1 60739U 24152V   26159.31608092 -.00000367  00000+0 -26952-6 0  9998
2 60739  53.1588 207.6559 0001161  96.2291 263.8842 15.30191404100674
STARLINK-32315          
1 60740U 24152W   26159.31291394  .00000856  00000+0  41030-4 0  9996
2 60740  53.1587 207.6374 0001079  90.3687 269.7437 15.30188114100592
STARLINK-11242 [DTC]    
1 60903U 24154A   26158.94578279 -.00001116  00000+0 -43456-5 0  9994
2 60903  53.1594  46.0827 0001712 158.4266 201.6824 15.69698891102690
STARLINK-11256 [DTC]    
1 60904U 24154B   26158.94088131 -.00001735  00000+0 -94701-5 0  9994
2 60904  53.1600  46.0446 0001098  69.6012 290.5124 15.69696082102695
STARLINK-11159 [DTC]    
1 60905U 24154C   26158.93116101  .00001060  00000+0  13603-4 0  9993
2 60905  53.1589  46.7174 0000605 121.8814 238.2263 15.69711377102688
STARLINK-11264 [DTC]    
1 60906U 24154D   26158.92625854  .00001593  00000+0  17997-4 0  9994
2 60906  53.1574  46.6842 0000814  64.3347 295.7755 15.69711653102689
STARLINK-11226 [DTC]    
1 60907U 24154E   26158.98501873  .00000907  00000+0  12339-4 0  9998
2 60907  53.1575  46.3376 0000950  47.8934 312.2165 15.69714124102696
STARLINK-11229 [DTC]    
1 60908U 24154F   26158.98011704  .00000388  00000+0  80551-5 0  9993
2 60908  53.1564  46.3043 0000928  49.0435 311.0663 15.69707665102693
STARLINK-11265 [DTC]    
1 60909U 24154G   26158.93606863  .00000278  00000+0  71464-5 0  9996
2 60909  53.1586  46.7482 0000786 109.4014 250.7089 15.69709773102687
STARLINK-11250 [DTC]    
1 60910U 24154H   26158.97519955 -.00005001  00000+0 -36431-4 0  9992
2 60910  53.1588  46.2771 0000944  67.4238 292.6880 15.69720984102696
STARLINK-11190 [DTC]    
1 60911U 24154J   26158.97029771 -.00000214  00000+0  30797-5 0  9995
2 60911  53.1575  46.2391 0000495 108.3164 251.7908 15.69717533102687
STARLINK-11225 [DTC]    
1 60912U 24154K   26158.96539858 -.00000201  00000+0  31967-5 0  9993
2 60912  53.1580  46.2049 0000986 110.7448 249.3675 15.69711368102685
STARLINK-11273 [DTC]    
1 60913U 24154L   26158.96049069 -.00000890  00000+0 -24945-5 0  9997
2 60913  53.1585  46.1726 0000702  96.9224 263.1874 15.69719099102689
STARLINK-11271 [DTC]    
1 60915U 24154N   26158.95068938 -.00002347  00000+0 -14519-4 0  9998
2 60915  53.1601  46.1061 0001398  92.6170 267.5008 15.69701190102687
STARLINK-32371          
1 60916U 24154P   26158.47833932 -.00002591  00000+0 -71763-4 0  9995
2 60916  53.1603 226.6680 0000876  94.4907 265.6194 15.31701444100088
STARLINK-32369          
1 60917U 24154Q   26158.47019749  .00001218  00000+0  53283-4 0  9998
2 60917  53.1599 226.6158 0001328  66.6860 293.4280 15.30177388100083
STARLINK-32317          
1 60918U 24154R   26158.90641393 -.00001712  00000+0 -45731-4 0  9993
2 60918  53.1591 225.0762 0000957  54.9822 305.1269 15.30184761100143
STARLINK-32367          
1 60919U 24154S   26158.91577896 -.00000724  00000+0 -12329-4 0  9990
2 60919  53.1587 224.4221 0001103  70.3688 289.7432 15.30196317100158
STARLINK-32345          
1 60920U 24154T   26158.90746841 -.00001851  00000+0 -50427-4 0  9992
2 60920  53.1594 225.0803 0001157  79.2630 280.8501 15.30184982100159
STARLINK-32356          
1 60921U 24154U   26158.46901245 -.00002184  00000+0 -58660-4 0  9992
2 60921  53.1602 226.6073 0000950  78.9272 281.1836 15.31688900100092
STARLINK-32274          
1 60922U 24154V   26158.88846627  .00001015  00000+0  46396-4 0  9994
2 60922  53.1604 224.9568 0001260  86.3230 273.7915 15.30200989100155
STARLINK-32373          
1 60923U 24154W   26158.50605657  .00001344  00000+0  57477-4 0  9997
2 60923  53.1602 226.8419 0001449  71.5420 288.5738 15.30210807100096
STARLINK-11239 [DTC]    
1 60924U 24155A   26158.56629915  .00003667  00000+0  35119-4 0  9997
2 60924  53.1575 258.5535 0001551  75.6064 284.5126 15.69710855102516
STARLINK-11245 [DTC]    
1 60925U 24155B   26158.99726700  .00001542  00000+0  17585-4 0  9992
2 60925  53.1593 256.2606 0001318  77.0173 283.0992 15.69709348102586
STARLINK-11244 [DTC]    
1 60926U 24155C   26158.98745061 -.00001223  00000+0 -52362-5 0  9994
2 60926  53.1596 256.1937 0001338  56.3034 303.8112 15.69715881102634
STARLINK-11243 [DTC]    
1 60927U 24155D   26158.99235476  .00000248  00000+0  69027-5 0  9990
2 60927  53.1594 256.2270 0001005  92.1675 267.9458 15.69714819102581
STARLINK-11238 [DTC]    
1 60928U 24155E   26158.98254443  .00000454  00000+0  86005-5 0  9999
2 60928  53.1585 256.1594 0001096  94.5065 265.6078 15.69713824102633
STARLINK-11240 [DTC]    
1 60929U 24155F   26158.53196249 -.00001461  00000+0 -72060-5 0  9997
2 60929  53.1580 258.3217 0001253 102.2783 257.8376 15.69698761102517
