OBJECT_NAME,OBJECT_ID,EPOCH,MEAN_MOTION,ECCENTRICITY,INCLINATION,RA_OF_ASC_NODE,ARG_OF_PERICENTER,MEAN_ANOMALY,EPHEMERIS_TYPE,CLASSIFICATION_TYPE,NORAD_CAT_ID,ELEMENT_SET_NO,REV_AT_EPOCH,BSTAR,MEAN_MOTION_DOT,MEAN_MOTION_DDOT
STARLINK-32304,2024-152U,2026-06-07T20:41:20.713920,15.30185847,.00012197,53.1604,209.7987,99.3579,260.7560,0,U,60738,999,10065,-.23620607E-4,-.1058E-4,0
STARLINK-32235,2024-152V,2026-06-08T07:35:09.391488,15.30191404,.0001161,53.1588,207.6559,96.2291,263.8842,0,U,60739,999,10067,-.269522E-6,-.367E-5,0
STARLINK-32315,2024-152W,2026-06-08T07:30:35.764416,15.30188114,.0001079,53.1587,207.6374,90.3687,269.7437,0,U,60740,999,10059,.41030122E-4,.856E-5,0
STARLINK-11242 [DTC],2024-154A,2026-06-07T22:41:55.633056,15.69698891,.00017121,53.1594,46.0827,158.4266,201.6824,0,U,60903,999,10269,-.4345621E-5,-.1116E-4,0
STARLINK-11256 [DTC],2024-154B,2026-06-07T22:34:52.145184,15.69696082,.00010987,53.1600,46.0446,69.6012,290.5124,0,U,60904,999,10269,-.9470134E-5,-.1735E-4,0
STARLINK-11159 [DTC],2024-154C,2026-06-07T22:20:52.311264,15.69711377,.00006051,53.1589,46.7174,121.8814,238.2263,0,U,60905,999,10268,.13602833E-4,.106E-4,0
STARLINK-11264 [DTC],2024-154D,2026-06-07T22:13:48.737856,15.69711653,.0000814,53.1574,46.6842,64.3347,295.7755,0,U,60906,999,10268,.17996804E-4,.1593E-4,0
STARLINK-11226 [DTC],2024-154E,2026-06-07T23:38:25.618272,15.69714124,.00009507,53.1575,46.3376,47.8934,312.2165,0,U,60907,999,10269,.12338928E-4,.907E-5,0
STARLINK-11229 [DTC],2024-154F,2026-06-07T23:31:22.112256,15.69707665,.00009289,53.1564,46.3043,49.0435,311.0663,0,U,60908,999,10269,.8055065E-5,.388E-5,0
STARLINK-11265 [DTC],2024-154G,2026-06-07T22:27:56.329632,15.69709773,.00007865,53.1586,46.7482,109.4014,250.7089,0,U,60909,999,10268,.7146398E-5,.278E-5,0
STARLINK-11250 [DTC],2024-154H,2026-06-07T23:24:17.241120,15.69720984,.00009445,53.1588,46.2771,67.4238,292.6880,0,U,60910,999,10269,-.36431131E-4,-.5001E-4,0
STARLINK-11190 [DTC],2024-154J,2026-06-07T23:17:13.722144,15.69717533,.00004955,53.1575,46.2391,108.3164,251.7908,0,U,60911,999,10268,.3079682E-5,-.214E-5,0
STARLINK-11225 [DTC],2024-154K,2026-06-07T23:10:10.437312,15.69711368,.00009861,53.1580,46.2049,110.7448,249.3675,0,U,60912,999,10268,.319671E-5,-.201E-5,0
STARLINK-11273 [DTC],2024-154L,2026-06-07T23:03:06.395616,15.69719099,.00007028,53.1585,46.1726,96.9224,263.1874,0,U,60913,999,10268,-.249454E-5,-.89E-5,0
STARLINK-11271 [DTC],2024-154N,2026-06-07T22:48:59.562432,15.69701190,.00013988,53.1601,46.1061,92.6170,267.5008,0,U,60915,999,10268,-.14519479E-4,-.2347E-4,0
STARLINK-32371,2024-154P,2026-06-07T11:28:48.517248,15.31701444,.00008769,53.1603,226.6680,94.4907,265.6194,0,U,60916,999,10008,-.71762629E-4,-.2591E-4,0
STARLINK-32369,2024-154Q,2026-06-07T11:17:05.063136,15.30177388,.00013284,53.1599,226.6158,66.6860,293.4280,0,U,60917,999,10008,.53283336E-4,.1218E-4,0
STARLINK-32317,2024-154R,2026-06-07T21:45:14.163552,15.30184761,.00009574,53.1591,225.0762,54.9822,305.1269,0,U,60918,999,10014,-.4573139E-4,-.1712E-4,0
STARLINK-32367,2024-154S,2026-06-07T21:58:43.302144,15.30196317,.00011032,53.1587,224.4221,70.3688,289.7432,0,U,60919,999,10015,-.1232907E-4,-.724E-5,0
STARLINK-32345,2024-154T,2026-06-07T21:46:45.270624,15.30184982,.00011572,53.1594,225.0803,79.2630,280.8501,0,U,60920,999,10015,-.50427251E-4,-.1851E-4,0
STARLINK-32356,2024-154U,2026-06-07T11:15:22.675680,15.31688900,.00009501,53.1602,226.6073,78.9272,281.1836,0,U,60921,999,10009,-.58659667E-4,-.2184E-4,0
STARLINK-32274,2024-154V,2026-06-07T21:19:23.485728,15.30200989,.00012608,53.1604,224.9568,86.3230,273.7915,0,U,60922,999,10015,.46396279E-4,.1015E-4,0
STARLINK-32373,2024-154W,2026-06-07T12:08:43.287648,15.30210807,.00014491,53.1602,226.8419,71.5420,288.5738,0,U,60923,999,10009,.57476591E-4,.1344E-4,0
STARLINK-11239 [DTC],2024-155A,2026-06-07T13:35:28.246560,15.69710855,.00015517,53.1575,258.5535,75.6064,284.5126,0,U,60924,999,10251,.35119469E-4,.3667E-4,0
STARLINK-11245 [DTC],2024-155B,2026-06-07T23:56:03.868800,15.69709348,.00013181,53.1593,256.2606,77.0173,283.0992,0,U,60925,999,10258,.17585216E-4,.1542E-4,0
STARLINK-11244 [DTC],2024-155C,2026-06-07T23:41:55.732704,15.69715881,.00013386,53.1596,256.1937,56.3034,303.8112,0,U,60926,999,10263,-.5236242E-5,-.1223E-4,0
STARLINK-11243 [DTC],2024-155D,2026-06-07T23:48:59.451264,15.69714819,.00010058,53.1594,256.2270,92.1675,267.9458,0,U,60927,999,10258,.6902668E-5,.248E-5,0
STARLINK-11238 [DTC],2024-155E,2026-06-07T23:34:51.838752,15.69713824,.00010968,53.1585,256.1594,94.5065,265.6078,0,U,60928,999,10263,.860053E-5,.454E-5,0
STARLINK-11240 [DTC],2024-155F,2026-06-07T12:46:01.559136,15.69698761,.0001253,53.1580,258.3217,102.2783,257.8376,0,U,60929,999,10251,-.7205995E-5,-.1461E-4,0
